NORAD_CAT_ID,OBJECT_NAME,OBJECT_TYPE,EPOCH,MEAN_MOTION,ECCENTRICITY,INCLINATION,RA_OF_ASC_NODE,ARG_OF_PERICENTER,MEAN_ANOMALY,BSTAR,MEAN_MOTION_DOT,MEAN_MOTION_DDOT,TLE_LINE0,TLE_LINE1,TLE_LINE2,SEMIMAJOR_AXIS,PERIOD,APOGEE,PERIGEE,DECAYED
53157.0,STARLINK-4093,PAYLOAD,2024-02-17 19:38:48,15.08836668,0.0001518,53.219,294.9113,114.1397,245.9754,6.9207e-05,8.14e-06,0.0,0 STARLINK-4093,1 53157U 22083AB  24048.81861755  .00000814  00000-0  69207-4 0  9996,2 53157  53.2190 294.9113 0001518 114.1397 245.9754 15.08836668 88635,6917.891,95.438,540.806,538.705,0.0
53157.0,STARLINK-4093,PAYLOAD,2024-02-17 22:49:34,15.08836851,0.0001012,53.2184,294.3181,101.6277,258.4829,9.8625e-05,1.282e-05,0.0,0 STARLINK-4093,1 53157U 22083AB  24048.95109719  .00001282  00000-0  98625-4 0  9992,2 53157  53.2184 294.3181 0001012 101.6277 258.4829 15.08836851 88023,6917.89,95.438,540.455,539.055,0.0
53157.0,STARLINK-4093,PAYLOAD,2024-02-18 22:40:21,15.08844595,0.0001238,53.217,289.861,83.1617,276.9516,0.00010814,1.434e-05,0.0,0 STARLINK-4093,1 53157U 22083AB  24049.94469263  .00001434  00000-0  10814-3 0  9997,2 53157  53.2170 289.8610 0001238  83.1617 276.9516 15.08844595 88174,6917.866,95.437,540.588,538.875,0.0
53157.0,STARLINK-4093,PAYLOAD,2024-02-19 01:51:07,15.08854806,7.05e-05,53.2168,289.2625,65.2494,294.8572,5.5131e-05,5.9e-06,0.0,0 STARLINK-4093,1 53157U 22083AB  24050.07716576  .00000590  00000-0  55131-4 0  9999,2 53157  53.2168 289.2625 0000705  65.2494 294.8572 15.08854806 88822,6917.835,95.437,540.188,539.212,0.0
53157.0,STARLINK-4093,PAYLOAD,2024-02-19 19:20:23,15.08828673,0.0001188,53.2166,285.9957,76.0988,284.0137,-7.0838e-05,-1.415e-05,0.0,0 STARLINK-4093,1 53157U 22083AB  24050.80582967 -.00001415  00000-0 -70838-4 0  9995,2 53157  53.2166 285.9957 0001188  76.0988 284.0137 15.08828673 88938,6917.915,95.438,540.602,538.958,0.0
53157.0,STARLINK-4093,PAYLOAD,2024-02-19 22:31:09,15.08832634,0.0001301,53.2165,285.3998,100.3564,259.7575,-3.8929e-05,-9.07e-06,0.0,0 STARLINK-4093,1 53157U 22083AB  24050.93830550 -.00000907  00000-0 -38929-4 0  9993,2 53157  53.2165 285.3998 0001301 100.3564 259.7575 15.08832634 88324,6917.903,95.438,540.668,538.868,0.0
53157.0,STARLINK-4093,PAYLOAD,2024-02-20 08:03:28,15.08835184,0.0001282,53.2165,283.6138,98.9115,261.2022,7.4726e-06,-1.69e-06,0.0,0 STARLINK-4093,1 53157U 22083AB  24051.33574398 -.00000169  00000-0  74726-5 0  9998,2 53157  53.2165 283.6138 0001282  98.9115 261.2022 15.08835184 88387,6917.895,95.438,540.647,538.873,0.0
53157.0,STARLINK-4093,PAYLOAD,2024-02-20 20:46:33,15.08836907,0.0001355,53.2167,281.2345,95.563,264.5517,-2.636e-05,-7.07e-06,0.0,0 STARLINK-4093,1 53157U 22083AB  24051.86566588 -.00000707  00000-0 -26360-4 0  9997,2 53157  53.2167 281.2345 0001355  95.5630 264.5517 15.08836907 88467,6917.89,95.438,540.692,538.817,0.0
53157.0,STARLINK-4093,PAYLOAD,2024-02-20 23:57:19,15.08840742,0.0001388,53.2171,280.6407,97.4165,262.6984,1.2428e-05,-9e-07,0.0,0 STARLINK-4093,1 53157U 22083AB  24051.99814260 -.00000090  00000-0  12428-4 0  9998,2 53157  53.2171 280.6407 0001388  97.4165 262.6984 15.08840742 89116,6917.878,95.438,540.703,538.783,0.0
53157.0,STARLINK-4093,PAYLOAD,2024-02-21 07:54:15,15.08843464,0.0001388,53.2171,279.1541,97.7934,262.3215,-1.2024e-06,-3.07e-06,0.0,0 STARLINK-4093,1 53157U 22083AB  24052.32934127 -.00000307  00000-0 -12024-5 0  9996,2 53157  53.2171 279.1541 0001388  97.7934 262.3215 15.08843464 88538,6917.87,95.437,540.695,538.775,0.0
53157.0,STARLINK-4093,PAYLOAD,2024-02-21 22:12:43,15.08839912,0.0001385,53.2172,276.4781,103.3801,256.7346,0.00012972,1.777e-05,0.0,0 STARLINK-4093,1 53157U 22083AB  24052.92550245  .00001777  00000-0  12972-3 0  9997,2 53157  53.2172 276.4781 0001385 103.3801 256.7346 15.08839912 88624,6917.881,95.438,540.704,538.788,0.0
53157.0,STARLINK-4093,PAYLOAD,2024-02-22 07:45:03,15.08812829,0.0001415,53.2181,274.6915,98.9815,261.1337,0.00055033,8.475e-05,0.0,0 STARLINK-4093,1 53157U 22083AB  24053.32295342  .00008475  00000-0  55033-3 0  9993,2 53157  53.2181 274.6915 0001415  98.9815 261.1337 15.08812829 89316,6917.963,95.439,540.807,538.85,0.0
53157.0,STARLINK-4093,PAYLOAD,2024-02-22 18:52:44,15.08838296,0.0001518,53.2181,272.6105,86.1697,273.9469,9.134e-05,1.166e-05,0.0,0 STARLINK-4093,1 53157U 22083AB  24053.78662634  .00001166  00000-0  91340-4 0  9997,2 53157  53.2181 272.6105 0001518  86.1697 273.9469 15.08838296 89386,6917.886,95.438,540.801,538.7,0.0
53157.0,STARLINK-4093,PAYLOAD,2024-02-22 22:03:30,15.08841556,0.0001421,53.2174,272.0158,84.8996,275.2159,5.8263e-05,6.39e-06,0.0,0 STARLINK-4093,1 53157U 22083AB  24053.91910475  .00000639  00000-0  58263-4 0  9992,2 53157  53.2174 272.0158 0001421  84.8996 275.2159 15.08841556 88776,6917.876,95.437,540.724,538.758,0.0
53157.0,STARLINK-4093,PAYLOAD,2024-02-23 07:35:49,15.08839695,0.0001113,53.2175,270.2311,89.7999,270.3121,2.6375e-05,1.32e-06,0.0,0 STARLINK-4093,1 53157U 22083AB  24054.31654525  .00000132  00000-0  26375-4 0  9995,2 53157  53.2175 270.2311 0001113  89.7999 270.3121 15.08839695 88836,6917.881,95.438,540.516,538.976,0.0
53157.0,STARLINK-4093,PAYLOAD,2024-02-23 20:18:54,15.08839699,0.0001146,53.217,267.8513,91.221,268.8913,-4.0741e-07,-2.94e-06,0.0,0 STARLINK-4093,1 53157U 22083AB  24054.84646675 -.00000294  00000-0 -40741-6 0  9996,2 53157  53.2170 267.8513 0001146  91.2210 268.8913 15.08839699 89541,6917.881,95.438,540.539,538.954,0.0
53157.0,STARLINK-4093,PAYLOAD,2024-02-23 21:54:17,15.08841517,0.0001249,53.2162,267.5563,88.904,271.2095,1.4441e-05,-5.8e-07,0.0,0 STARLINK-4093,1 53157U 22083AB  24054.91270545 -.00000058  00000-0  14441-4 0  9996,2 53157  53.2162 267.5563 0001249  88.9040 271.2095 15.08841517 88924,6917.876,95.437,540.605,538.877,0.0
53157.0,STARLINK-4093,PAYLOAD,2024-02-24 13:48:08,15.08842449,0.0001168,53.2162,264.5819,90.0801,270.0325,9.4846e-05,1.222e-05,0.0,0 STARLINK-4093,1 53157U 22083AB  24055.57510221  .00001222  00000-0  94846-4 0  9997,2 53157  53.2162 264.5819 0001168  90.0801 270.0325 15.08842449 89024,6917.873,95.437,540.546,538.93,0.0
53157.0,STARLINK-4093,PAYLOAD,2024-02-24 20:09:41,15.08845222,0.0001259,53.2161,263.3928,89.1709,270.9427,0.00010165,1.33e-05,0.0,0 STARLINK-4093,1 53157U 22083AB  24055.84006030  .00001330  00000-0  10165-3 0  9996,2 53157  53.2161 263.3928 0001259  89.1709 270.9427 15.08845222 89695,6917.864,95.437,540.6,538.858,0.0
53157.0,STARLINK-4093,PAYLOAD,2024-02-25 13:38:55,15.08838034,0.0001497,53.215,260.1224,84.6278,275.4885,0.00015986,2.257e-05,0.0,0 STARLINK-4093,1 53157U 22083AB  24056.56870284  .00002257  00000-0  15986-3 0  9991,2 53157  53.2150 260.1224 0001497  84.6278 275.4885 15.08838034 89176,6917.886,95.438,540.787,538.716,0.0
53157.0,STARLINK-4093,PAYLOAD,2024-02-25 20:00:27,15.08846711,0.0001434,53.2149,258.9294,98.6866,261.4289,0.00013504,1.862e-05,0.0,0 STARLINK-4093,1 53157U 22083AB  24056.83365633  .00001862  00000-0  13504-3 0  9993,2 53157  53.2149 258.9294 0001434  98.6866 261.4289 15.08846711 89214,6917.86,95.437,540.717,538.733,0.0
53157.0,STARLINK-4093,PAYLOAD,2024-02-26 18:15:53,15.08832577,0.0001365,53.2158,254.7666,101.2165,258.898,-3.8641e-05,-9.03e-06,0.0,0 STARLINK-4093,1 53157U 22083AB  24057.76103041 -.00000903  00000-0 -38641-4 0  9996,2 53157  53.2158 254.7666 0001365 101.2165 258.8980 15.08832577 89984,6917.903,95.438,540.712,538.824,0.0
53157.0,STARLINK-4093,PAYLOAD,2024-02-27 13:20:30,15.08839054,0.0001367,53.2163,251.1992,100.8692,259.2454,1.9036e-05,1.5e-07,0.0,0 STARLINK-4093,1 53157U 22083AB  24058.55590584  .00000015  00000-0  19036-4 0  9995,2 53157  53.2163 251.1992 0001367 100.8692 259.2454 15.08839054 89477,6917.883,95.438,540.694,538.803,0.0
53157.0,STARLINK-4093,PAYLOAD,2024-02-27 19:42:02,15.08844086,0.0001262,53.2159,250.0118,90.0139,270.0997,7.5311e-05,9.11e-06,0.0,0 STARLINK-4093,1 53157U 22083AB  24058.82086182  .00000911  00000-0  75311-4 0  9992,2 53157  53.2159 250.0118 0001262  90.0139 270.0997 15.08844086 90140,6917.868,95.437,540.606,538.86,0.0
53157.0,STARLINK-4093,PAYLOAD,2024-02-28 05:14:21,15.08844301,0.0001203,53.2156,248.2276,84.9078,275.2052,3.4725e-06,-2.33e-06,0.0,0 STARLINK-4093,1 53157U 22083AB  24059.21830336 -.00000233  00000-0  34725-5 0  9997,2 53157  53.2156 248.2276 0001203  84.9078 275.2052 15.08844301 89574,6917.867,95.437,540.564,538.9,0.0
53157.0,STARLINK-4093,PAYLOAD,2024-02-28 19:32:50,15.08831454,0.0001268,53.2161,245.5515,60.6516,299.4603,0.00012873,1.761e-05,0.0,0 STARLINK-4093,1 53157U 22083AB  24059.81447091  .00001761  00000-0  12873-3 0  9999,2 53157  53.2161 245.5515 0001268  60.6516 299.4603 15.08831454 90291,6917.907,95.438,540.649,538.894,0.0
53157.0,STARLINK-4093,PAYLOAD,2024-02-29 05:05:09,15.08825957,0.0001315,53.2157,243.7672,114.8602,245.2527,0.00020407,2.96e-05,0.0,0 STARLINK-4093,1 53157U 22083AB  24060.21191375  .00002960  00000-0  20407-3 0  9990,2 53157  53.2157 243.7672 0001315 114.8602 245.2527 15.08825957 89722,6917.923,95.438,540.698,538.879,0.0
53157.0,STARLINK-4093,PAYLOAD,2024-02-29 19:23:37,15.08848479,0.0001179,53.2161,241.0912,87.5415,272.5712,-0.00016062,-2.844e-05,0.0,0 STARLINK-4093,1 53157U 22083AB  24060.80807058 -.00002844  00000-0 -16062-3 0  9992,2 53157  53.2161 241.0912 0001179  87.5415 272.5712 15.08848479 90445,6917.854,95.437,540.535,538.904,0.0
53157.0,STARLINK-4093,PAYLOAD,2024-02-29 20:59:00,15.08844114,0.0001599,53.2166,240.7946,100.7097,259.4076,-3.7333e-05,-8.82e-06,0.0,0 STARLINK-4093,1 53157U 22083AB  24060.87430966 -.00000882  00000-0 -37333-4 0  9994,2 53157  53.2166 240.7946 0001599 100.7097 259.4076 15.08844114 89822,6917.868,95.437,540.839,538.627,0.0
53157.0,STARLINK-4093,PAYLOAD,2024-03-01 16:03:37,15.08841666,0.0001297,53.2169,237.2258,100.2938,259.8201,6.0854e-05,6.81e-06,0.0,0 STARLINK-4093,1 53157U 22083AB  24061.66918821  .00000681  00000-0  60854-4 0  9992,2 53157  53.2169 237.2258 0001297 100.2938 259.8201 15.08841666 89942,6917.875,95.437,540.638,538.843,0.0
